{
 "generated_at": "2026-07-23T07:33:13Z",
 "sources": [
  {
   "name": "CelesTrak",
   "url": "https://celestrak.org/NORAD/elements/",
   "license": "frei verfügbar; Attribution. Ursprünglich USSPACECOM/Space-Track."
  },
  {
   "name": "GCAT (J. McDowell, planet4589.org)",
   "url": "https://planet4589.org/space/gcat/",
   "license": "CC-BY 4.0"
  }
 ],
 "satellites": [
  {
   "norad": 51284,
   "name": "LUDI TANCE 1-01A (L-SAR 01A)",
   "intl": "2022-007A",
   "group": "sar",
   "gcat": {
    "class": "C",
    "category": "IMG-R",
    "owner": "SAST",
    "state": "CN"
   },
   "omm": {
    "OBJECT_NAME": "LUDI TANCE 1-01A (L-SAR 01A)",
    "OBJECT_ID": "2022-007A",
    "EPOCH": "2026-07-22T22:42:02.355840",
    "MEAN_MOTION": 14.88415687,
    "ECCENTRICITY": 0.00016228,
    "INCLINATION": 97.811,
    "RA_OF_ASC_NODE": 210.8589,
    "ARG_OF_PERICENTER": 90.9115,
    "MEAN_ANOMALY": 269.2288,
    "EPHEMERIS_TYPE": 0,
    "CLASSIFICATION_TYPE": "U",
    "NORAD_CAT_ID": 51284,
    "ELEMENT_SET_NO": 999,
    "REV_AT_EPOCH": 24379,
    "BSTAR": 0.000063825467,
    "MEAN_MOTION_DOT": 0.00000537,
    "MEAN_MOTION_DDOT": 0
   }
  },
  {
   "norad": 51822,
   "name": "LUDI TANCE 1-01B (L-SAR 01B)",
   "intl": "2022-018A",
   "group": "sar",
   "gcat": {
    "class": "C",
    "category": "IMG-R",
    "owner": "SAST",
    "state": "CN"
   },
   "omm": {
    "OBJECT_NAME": "LUDI TANCE 1-01B (L-SAR 01B)",
    "OBJECT_ID": "2022-018A",
    "EPOCH": "2026-07-22T23:30:25.443360",
    "MEAN_MOTION": 14.88420885,
    "ECCENTRICITY": 0.00016194,
    "INCLINATION": 97.8115,
    "RA_OF_ASC_NODE": 210.8907,
    "ARG_OF_PERICENTER": 90.9323,
    "MEAN_ANOMALY": 269.2079,
    "EPHEMERIS_TYPE": 0,
    "CLASSIFICATION_TYPE": "U",
    "NORAD_CAT_ID": 51822,
    "ELEMENT_SET_NO": 999,
    "REV_AT_EPOCH": 23903,
    "BSTAR": 0.000066264033,
    "MEAN_MOTION_DOT": 0.0000056,
    "MEAN_MOTION_DDOT": 0
   }
  },
  {
   "norad": 57624,
   "name": "LUDI TANCE-4 01A",
   "intl": "2023-120A",
   "group": "sar",
   "gcat": {
    "class": "D",
    "category": "IMG-R",
    "owner": "CNSA",
    "state": "CN"
   },
   "omm": {
    "OBJECT_NAME": "LUDI TANCE-4 01A",
    "OBJECT_ID": "2023-120A",
    "EPOCH": "2026-07-22T14:27:27.447264",
    "MEAN_MOTION": 1.00275057,
    "ECCENTRICITY": 0.00017051,
    "INCLINATION": 15.0824,
    "RA_OF_ASC_NODE": 193.0909,
    "ARG_OF_PERICENTER": 10.1521,
    "MEAN_ANOMALY": 43.5828,
    "EPHEMERIS_TYPE": 0,
    "CLASSIFICATION_TYPE": "U",
    "NORAD_CAT_ID": 57624,
    "ELEMENT_SET_NO": 999,
    "REV_AT_EPOCH": 1090,
    "BSTAR": 0,
    "MEAN_MOTION_DOT": -0.00000168,
    "MEAN_MOTION_DDOT": 0
   }
  },
  {
   "norad": 27004,
   "name": "MAROC-TUBSAT",
   "intl": "2001-056D",
   "group": "resource",
   "gcat": {
    "class": null,
    "category": null,
    "owner": null,
    "state": null
   },
   "omm": {
    "OBJECT_NAME": "MAROC-TUBSAT",
    "OBJECT_ID": "2001-056D",
    "EPOCH": "2026-07-22T11:32:16.356768",
    "MEAN_MOTION": 13.70263745,
    "ECCENTRICITY": 0.00204779,
    "INCLINATION": 99.8104,
    "RA_OF_ASC_NODE": 21.0089,
    "ARG_OF_PERICENTER": 54.0994,
    "MEAN_ANOMALY": 330.8625,
    "EPHEMERIS_TYPE": 0,
    "CLASSIFICATION_TYPE": "U",
    "NORAD_CAT_ID": 27004,
    "ELEMENT_SET_NO": 999,
    "REV_AT_EPOCH": 23102,
    "BSTAR": 0.000031035012,
    "MEAN_MOTION_DOT": -1.9e-7,
    "MEAN_MOTION_DDOT": 0
   }
  },
  {
   "norad": 40069,
   "name": "METEOR-M 2",
   "intl": "2014-037A",
   "group": "weather",
   "gcat": {
    "class": "C",
    "category": "MET",
    "owner": "RGMS/VNIIEMI",
    "state": "RU"
   },
   "omm": {
    "OBJECT_NAME": "METEOR-M 2",
    "OBJECT_ID": "2014-037A",
    "EPOCH": "2026-07-22T21:41:11.985216",
    "MEAN_MOTION": 14.21471212,
    "ECCENTRICITY": 0.00047137,
    "INCLINATION": 98.5144,
    "RA_OF_ASC_NODE": 178.3817,
    "ARG_OF_PERICENTER": 300.4254,
    "MEAN_ANOMALY": 59.6458,
    "EPHEMERIS_TYPE": 0,
    "CLASSIFICATION_TYPE": "U",
    "NORAD_CAT_ID": 40069,
    "ELEMENT_SET_NO": 999,
    "REV_AT_EPOCH": 62439,
    "BSTAR": 0.000089861341,
    "MEAN_MOTION_DOT": 0.00000154,
    "MEAN_MOTION_DDOT": 0
   }
  },
  {
   "norad": 44387,
   "name": "METEOR-M2 2",
   "intl": "2019-038A",
   "group": "weather",
   "gcat": {
    "class": "C",
    "category": "MET",
    "owner": "RGMS/VNIIEMI",
    "state": "RU"
   },
   "omm": {
    "OBJECT_NAME": "METEOR-M2 2",
    "OBJECT_ID": "2019-038A",
    "EPOCH": "2026-07-22T22:18:38.177856",
    "MEAN_MOTION": 14.24374482,
    "ECCENTRICITY": 0.00001939,
    "INCLINATION": 98.9174,
    "RA_OF_ASC_NODE": 191.7465,
    "ARG_OF_PERICENTER": 346.0818,
    "MEAN_ANOMALY": 14.0354,
    "EPHEMERIS_TYPE": 0,
    "CLASSIFICATION_TYPE": "U",
    "NORAD_CAT_ID": 44387,
    "ELEMENT_SET_NO": 999,
    "REV_AT_EPOCH": 36638,
    "BSTAR": 0.000058318192,
    "MEAN_MOTION_DOT": 8.9e-7,
    "MEAN_MOTION_DDOT": 0
   }
  },
  {
   "norad": 57166,
   "name": "METEOR-M2 3",
   "intl": "2023-091A",
   "group": "weather",
   "gcat": {
    "class": "C",
    "category": "MET",
    "owner": "RGMS/VNIIEMI",
    "state": "RU"
   },
   "omm": {
    "OBJECT_NAME": "METEOR-M2 3",
    "OBJECT_ID": "2023-091A",
    "EPOCH": "2026-07-22T22:22:22.198368",
    "MEAN_MOTION": 14.24049323,
    "ECCENTRICITY": 0.00050522,
    "INCLINATION": 98.6063,
    "RA_OF_ASC_NODE": 258.1751,
    "ARG_OF_PERICENTER": 73.0449,
    "MEAN_ANOMALY": 287.1284,
    "EPHEMERIS_TYPE": 0,
    "CLASSIFICATION_TYPE": "U",
    "NORAD_CAT_ID": 57166,
    "ELEMENT_SET_NO": 999,
    "REV_AT_EPOCH": 15960,
    "BSTAR": 0.000009743698,
    "MEAN_MOTION_DOT": -2.1e-7,
    "MEAN_MOTION_DDOT": 0
   }
  },
  {
   "norad": 59051,
   "name": "METEOR-M2 4",
   "intl": "2024-039A",
   "group": "weather",
   "gcat": {
    "class": "C",
    "category": "MET",
    "owner": "RGMS/VNIIEMI",
    "state": "RU"
   },
   "omm": {
    "OBJECT_NAME": "METEOR-M2 4",
    "OBJECT_ID": "2024-039A",
    "EPOCH": "2026-07-22T22:00:40.167648",
    "MEAN_MOTION": 14.22432744,
    "ECCENTRICITY": 0.00081954,
    "INCLINATION": 98.7031,
    "RA_OF_ASC_NODE": 162.7702,
    "ARG_OF_PERICENTER": 69.5846,
    "MEAN_ANOMALY": 290.6212,
    "EPHEMERIS_TYPE": 0,
    "CLASSIFICATION_TYPE": "U",
    "NORAD_CAT_ID": 59051,
    "ELEMENT_SET_NO": 999,
    "REV_AT_EPOCH": 12434,
    "BSTAR": 0.000021766167,
    "MEAN_MOTION_DOT": 5e-8,
    "MEAN_MOTION_DDOT": 0
   }
  },
  {
   "norad": 38552,
   "name": "METEOSAT-10 (MSG-3)",
   "intl": "2012-035B",
   "group": "weather",
   "gcat": {
    "class": "C",
    "category": "MET",
    "owner": "EUMET",
    "state": "I-EUM"
   },
   "omm": {
    "OBJECT_NAME": "METEOSAT-10 (MSG-3)",
    "OBJECT_ID": "2012-035B",
    "EPOCH": "2026-07-22T18:10:00.194016",
    "MEAN_MOTION": 1.00273198,
    "ECCENTRICITY": 0.00014991,
    "INCLINATION": 4.7535,
    "RA_OF_ASC_NODE": 60.8424,
    "ARG_OF_PERICENTER": 20.0765,
    "MEAN_ANOMALY": 132.1319,
    "EPHEMERIS_TYPE": 0,
    "CLASSIFICATION_TYPE": "U",
    "NORAD_CAT_ID": 38552,
    "ELEMENT_SET_NO": 999,
    "REV_AT_EPOCH": 5121,
    "BSTAR": 0,
    "MEAN_MOTION_DOT": -7e-8,
    "MEAN_MOTION_DDOT": 0
   }
  },
  {
   "norad": 40732,
   "name": "METEOSAT-11 (MSG-4)",
   "intl": "2015-034A",
   "group": "weather",
   "gcat": {
    "class": "C",
    "category": "MET",
    "owner": "EUMET",
    "state": "I-EUM"
   },
   "omm": {
    "OBJECT_NAME": "METEOSAT-11 (MSG-4)",
    "OBJECT_ID": "2015-034A",
    "EPOCH": "2026-07-22T21:37:49.747008",
    "MEAN_MOTION": 1.00274266,
    "ECCENTRICITY": 0.00019664,
    "INCLINATION": 3.2876,
    "RA_OF_ASC_NODE": 70.8766,
    "ARG_OF_PERICENTER": 355.626,
    "MEAN_ANOMALY": 207.8813,
    "EPHEMERIS_TYPE": 0,
    "CLASSIFICATION_TYPE": "U",
    "NORAD_CAT_ID": 40732,
    "ELEMENT_SET_NO": 999,
    "REV_AT_EPOCH": 757,
    "BSTAR": 0,
    "MEAN_MOTION_DOT": 6.4e-7,
    "MEAN_MOTION_DDOT": 0
   }
  }
 ]
}
